{"type":"FeatureCollection","features":[{"type":"Feature","properties":{"stopId":"940GZZLUBST","name":"Baker Street Underground Station"},"geometry":{"type":"Point","coordinates":[-0.15713,51.522883]}},{"type":"Feature","properties":{"stopId":"940GZZLUEMB","name":"Embankment Underground Station"},"geometry":{"type":"Point","coordinates":[-0.122666,51.507058]}},{"type":"Feature","properties":{"stopId":"940GZZLUERB","name":"Edgware Road (Bakerloo) Underground Station"},"geometry":{"type":"Point","coordinates":[-0.17015,51.520299]}},{"type":"Feature","properties":{"stopId":"940GZZLUKPK","name":"Kilburn Park Underground Station"},"geometry":{"type":"Point","coordinates":[-0.194232,51.534979]}},{"type":"Feature","properties":{"stopId":"940GZZLULBN","name":"Lambeth North Underground Station"},"geometry":{"type":"Point","coordinates":[-0.112315,51.498808]}},{"type":"Feature","properties":{"stopId":"940GZZLUMVL","name":"Maida Vale Underground Station"},"geometry":{"type":"Point","coordinates":[-0.185758,51.529777]}},{"type":"Feature","properties":{"stopId":"940GZZLUOXC","name":"Oxford Circus Underground Station"},"geometry":{"type":"Point","coordinates":[-0.141903,51.515224]}},{"type":"Feature","properties":{"stopId":"940GZZLUPCC","name":"Piccadilly Circus Underground Station"},"geometry":{"type":"Point","coordinates":[-0.133798,51.51005]}},{"type":"Feature","properties":{"stopId":"940GZZLURGP","name":"Regent's Park Underground Station"},"geometry":{"type":"Point","coordinates":[-0.146444,51.523344]}},{"type":"Feature","properties":{"stopId":"940GZZLUWKA","name":"Warwick Avenue Underground Station"},"geometry":{"type":"Point","coordinates":[-0.183783,51.523263]}},{"type":"Feature","properties":{"stopId":"HUBCHX","name":"Charing Cross"},"geometry":{"type":"Point","coordinates":[-0.126137,51.507819]}},{"type":"Feature","properties":{"stopId":"HUBEPH","name":"Elephant & Castle"},"geometry":{"type":"Point","coordinates":[-0.099185,51.494505]}},{"type":"Feature","properties":{"stopId":"HUBHDN","name":"Harlesden"},"geometry":{"type":"Point","coordinates":[-0.257774,51.536305]}},{"type":"Feature","properties":{"stopId":"HUBHRW","name":"Harrow & Wealdstone"},"geometry":{"type":"Point","coordinates":[-0.334896,51.592216]}},{"type":"Feature","properties":{"stopId":"HUBKNL","name":"Kensal Green"},"geometry":{"type":"Point","coordinates":[-0.22505,51.530545]}},{"type":"Feature","properties":{"stopId":"HUBKNT","name":"Kenton"},"geometry":{"type":"Point","coordinates":[-0.316946,51.581786]}},{"type":"Feature","properties":{"stopId":"HUBMYB","name":"Marylebone"},"geometry":{"type":"Point","coordinates":[-0.163013,51.521602]}},{"type":"Feature","properties":{"stopId":"HUBNWB","name":"North Wembley"},"geometry":{"type":"Point","coordinates":[-0.303992,51.56258]}},{"type":"Feature","properties":{"stopId":"HUBPAD","name":"Paddington"},"geometry":{"type":"Point","coordinates":[-0.17616,51.516981]}},{"type":"Feature","properties":{"stopId":"HUBQPW","name":"Queen's Park"},"geometry":{"type":"Point","coordinates":[-0.204882,51.534443]}},{"type":"Feature","properties":{"stopId":"HUBSBP","name":"Stonebridge Park"},"geometry":{"type":"Point","coordinates":[-0.275859,51.544041]}},{"type":"Feature","properties":{"stopId":"HUBSOK","name":"South Kenton"},"geometry":{"type":"Point","coordinates":[-0.308448,51.570229]}},{"type":"Feature","properties":{"stopId":"HUBWAT","name":"Waterloo"},"geometry":{"type":"Point","coordinates":[-0.113356,51.504269]}},{"type":"Feature","properties":{"stopId":"HUBWIJ","name":"Willesden Junction"},"geometry":{"type":"Point","coordinates":[-0.243006,51.532556]}},{"type":"Feature","properties":{"stopId":"HUBWMB","name":"Wembley Central"},"geometry":{"type":"Point","coordinates":[-0.296642,51.55232]}},{"type":"Feature","properties":{"stopId":"940GZZLUBKE","name":"Barkingside Underground Station"},"geometry":{"type":"Point","coordinates":[0.088585,51.585689]}},{"type":"Feature","properties":{"stopId":"940GZZLUBKH","name":"Buckhurst Hill Underground Station"},"geometry":{"type":"Point","coordinates":[0.046757,51.626605]}},{"type":"Feature","properties":{"stopId":"940GZZLUBLG","name":"Bethnal Green Underground Station"},"geometry":{"type":"Point","coordinates":[-0.055506,51.527222]}},{"type":"Feature","properties":{"stopId":"940GZZLUCHL","name":"Chancery Lane Underground Station"},"geometry":{"type":"Point","coordinates":[-0.111583,51.518247]}},{"type":"Feature","properties":{"stopId":"940GZZLUCWL","name":"Chigwell Underground Station"},"geometry":{"type":"Point","coordinates":[0.075041,51.617916]}},{"type":"Feature","properties":{"stopId":"940GZZLUDBN","name":"Debden Underground Station"},"geometry":{"type":"Point","coordinates":[0.083782,51.645386]}},{"type":"Feature","properties":{"stopId":"940GZZLUEAN","name":"East Acton Underground Station"},"geometry":{"type":"Point","coordinates":[-0.247248,51.516612]}},{"type":"Feature","properties":{"stopId":"940GZZLUEPG","name":"Epping Underground Station"},"geometry":{"type":"Point","coordinates":[0.113767,51.69368]}},{"type":"Feature","properties":{"stopId":"940GZZLUFLP","name":"Fairlop Underground Station"},"geometry":{"type":"Point","coordinates":[0.091004,51.595618]}},{"type":"Feature","properties":{"stopId":"940GZZLUGGH","name":"Grange Hill Underground Station"},"geometry":{"type":"Point","coordinates":[0.092066,51.613378]}},{"type":"Feature","properties":{"stopId":"940GZZLUGTH","name":"Gants Hill Underground Station"},"geometry":{"type":"Point","coordinates":[0.066185,51.576544]}},{"type":"Feature","properties":{"stopId":"940GZZLUHBN","name":"Holborn Underground Station"},"geometry":{"type":"Point","coordinates":[-0.120475,51.51758]}},{"type":"Feature","properties":{"stopId":"940GZZLUHGR","name":"Hanger Lane Underground Station"},"geometry":{"type":"Point","coordinates":[-0.292704,51.530177]}},{"type":"Feature","properties":{"stopId":"940GZZLUHLT","name":"Hainault Underground Station"},"geometry":{"type":"Point","coordinates":[0.093482,51.603659]}},{"type":"Feature","properties":{"stopId":"940GZZLUHPK","name":"Holland Park Underground Station"},"geometry":{"type":"Point","coordinates":[-0.205679,51.507143]}},{"type":"Feature","properties":{"stopId":"940GZZLULGN","name":"Loughton Underground Station"},"geometry":{"type":"Point","coordinates":[0.055476,51.641443]}},{"type":"Feature","properties":{"stopId":"940GZZLULGT","name":"Lancaster Gate Underground Station"},"geometry":{"type":"Point","coordinates":[-0.175494,51.511723]}},{"type":"Feature","properties":{"stopId":"940GZZLULYN","name":"Leyton Underground Station"},"geometry":{"type":"Point","coordinates":[-0.005523,51.556589]}},{"type":"Feature","properties":{"stopId":"940GZZLULYS","name":"Leytonstone Underground Station"},"geometry":{"type":"Point","coordinates":[0.008194,51.568324]}},{"type":"Feature","properties":{"stopId":"940GZZLUMBA","name":"Marble Arch Underground Station"},"geometry":{"type":"Point","coordinates":[-0.158953,51.513424]}},{"type":"Feature","properties":{"stopId":"940GZZLUMED","name":"Mile End Underground Station"},"geometry":{"type":"Point","coordinates":[-0.03364,51.525122]}},{"type":"Feature","properties":{"stopId":"940GZZLUNAN","name":"North Acton Underground Station"},"geometry":{"type":"Point","coordinates":[-0.259755,51.523524]}},{"type":"Feature","properties":{"stopId":"940GZZLUNBP","name":"Newbury Park Underground Station"},"geometry":{"type":"Point","coordinates":[0.090004,51.575726]}},{"type":"Feature","properties":{"stopId":"940GZZLUNHG","name":"Notting Hill Gate Underground Station"},"geometry":{"type":"Point","coordinates":[-0.196104,51.509128]}},{"type":"Feature","properties":{"stopId":"940GZZLUNHT","name":"Northolt Underground Station"},"geometry":{"type":"Point","coordinates":[-0.368699,51.548236]}},{"type":"Feature","properties":{"stopId":"940GZZLUPVL","name":"Perivale Underground Station"},"geometry":{"type":"Point","coordinates":[-0.323446,51.536717]}},{"type":"Feature","properties":{"stopId":"940GZZLUQWY","name":"Queensway Underground Station"},"geometry":{"type":"Point","coordinates":[-0.187152,51.510312]}},{"type":"Feature","properties":{"stopId":"940GZZLURBG","name":"Redbridge Underground Station"},"geometry":{"type":"Point","coordinates":[0.04536,51.576243]}},{"type":"Feature","properties":{"stopId":"940GZZLURSG","name":"Ruislip Gardens Underground Station"},"geometry":{"type":"Point","coordinates":[-0.41071,51.560736]}},{"type":"Feature","properties":{"stopId":"940GZZLURVY","name":"Roding Valley Underground Station"},"geometry":{"type":"Point","coordinates":[0.043647,51.617199]}},{"type":"Feature","properties":{"stopId":"940GZZLUSNB","name":"Snaresbrook Underground Station"},"geometry":{"type":"Point","coordinates":[0.02144,51.580678]}},{"type":"Feature","properties":{"stopId":"940GZZLUSPU","name":"St. Paul's Underground Station"},"geometry":{"type":"Point","coordinates":[-0.097567,51.514936]}},{"type":"Feature","properties":{"stopId":"940GZZLUSWF","name":"South Woodford Underground Station"},"geometry":{"type":"Point","coordinates":[0.027338,51.591907]}},{"type":"Feature","properties":{"stopId":"940GZZLUTHB","name":"Theydon Bois Underground Station"},"geometry":{"type":"Point","coordinates":[0.103085,51.671759]}},{"type":"Feature","properties":{"stopId":"940GZZLUWCY","name":"White City Underground Station"},"geometry":{"type":"Point","coordinates":[-0.224297,51.511959]}},{"type":"Feature","properties":{"stopId":"940GZZLUWOF","name":"Woodford Underground Station"},"geometry":{"type":"Point","coordinates":[0.03397,51.606899]}},{"type":"Feature","properties":{"stopId":"940GZZLUWSD","name":"Wanstead Underground Station"},"geometry":{"type":"Point","coordinates":[0.028527,51.575501]}},{"type":"Feature","properties":{"stopId":"940GZZLUWTA","name":"West Acton Underground Station"},"geometry":{"type":"Point","coordinates":[-0.28098,51.518001]}},{"type":"Feature","properties":{"stopId":"HUBBAN","name":"Bank"},"geometry":{"type":"Point","coordinates":[-0.089095,51.513395]}},{"type":"Feature","properties":{"stopId":"HUBBDS","name":"Bond Street"},"geometry":{"type":"Point","coordinates":[-0.148795,51.513362]}},{"type":"Feature","properties":{"stopId":"HUBEAL","name":"Ealing Broadway"},"geometry":{"type":"Point","coordinates":[-0.302131,51.514993]}},{"type":"Feature","properties":{"stopId":"HUBGFD","name":"Greenford"},"geometry":{"type":"Point","coordinates":[-0.345789,51.542657]}},{"type":"Feature","properties":{"stopId":"HUBLST","name":"Liverpool Street"},"geometry":{"type":"Point","coordinates":[-0.083162,51.51794]}},{"type":"Feature","properties":{"stopId":"HUBSPB","name":"Shepherd's Bush"},"geometry":{"type":"Point","coordinates":[-0.219213,51.504791]}},{"type":"Feature","properties":{"stopId":"HUBSRA","name":"Stratford"},"geometry":{"type":"Point","coordinates":[-0.00241,51.541508]}},{"type":"Feature","properties":{"stopId":"HUBSRU","name":"South Ruislip"},"geometry":{"type":"Point","coordinates":[-0.399076,51.556893]}},{"type":"Feature","properties":{"stopId":"HUBTCR","name":"Tottenham Court Road"},"geometry":{"type":"Point","coordinates":[-0.130888,51.516018]}},{"type":"Feature","properties":{"stopId":"HUBWRU","name":"West Ruislip"},"geometry":{"type":"Point","coordinates":[-0.437816,51.569721]}},{"type":"Feature","properties":{"stopId":"940GZZLUALD","name":"Aldgate Underground Station"},"geometry":{"type":"Point","coordinates":[-0.075689,51.514246]}},{"type":"Feature","properties":{"stopId":"940GZZLUBBN","name":"Barbican Underground Station"},"geometry":{"type":"Point","coordinates":[-0.097993,51.520275]}},{"type":"Feature","properties":{"stopId":"940GZZLUBWT","name":"Bayswater Underground Station"},"geometry":{"type":"Point","coordinates":[-0.187938,51.512284]}},{"type":"Feature","properties":{"stopId":"940GZZLUERC","name":"Edgware Road (Circle Line) Underground Station"},"geometry":{"type":"Point","coordinates":[-0.167832,51.519858]}},{"type":"Feature","properties":{"stopId":"940GZZLUESQ","name":"Euston Square Underground Station"},"geometry":{"type":"Point","coordinates":[-0.135829,51.525604]}},{"type":"Feature","properties":{"stopId":"940GZZLUGHK","name":"Goldhawk Road Underground Station"},"geometry":{"type":"Point","coordinates":[-0.226715,51.502005]}},{"type":"Feature","properties":{"stopId":"940GZZLUGPS","name":"Great Portland Street Underground Station"},"geometry":{"type":"Point","coordinates":[-0.144262,51.52384]}},{"type":"Feature","properties":{"stopId":"940GZZLUGTR","name":"Gloucester Road Underground Station"},"geometry":{"type":"Point","coordinates":[-0.182658,51.494316]}},{"type":"Feature","properties":{"stopId":"940GZZLUHSK","name":"High Street Kensington Underground Station"},"geometry":{"type":"Point","coordinates":[-0.192792,51.501055]}},{"type":"Feature","properties":{"stopId":"940GZZLULAD","name":"Ladbroke Grove Underground Station"},"geometry":{"type":"Point","coordinates":[-0.210391,51.517449]}},{"type":"Feature","properties":{"stopId":"940GZZLULRD","name":"Latimer Road Underground Station"},"geometry":{"type":"Point","coordinates":[-0.217799,51.513389]}},{"type":"Feature","properties":{"stopId":"940GZZLUMMT","name":"Monument Underground Station"},"geometry":{"type":"Point","coordinates":[-0.085969,51.5107]}},{"type":"Feature","properties":{"stopId":"940GZZLUMSH","name":"Mansion House Underground Station"},"geometry":{"type":"Point","coordinates":[-0.094009,51.512117]}},{"type":"Feature","properties":{"stopId":"940GZZLURYO","name":"Royal Oak Underground Station"},"geometry":{"type":"Point","coordinates":[-0.188748,51.519113]}},{"type":"Feature","properties":{"stopId":"940GZZLUSBM","name":"Shepherd's Bush Market Underground Station"},"geometry":{"type":"Point","coordinates":[-0.226375,51.505579]}},{"type":"Feature","properties":{"stopId":"940GZZLUSJP","name":"St. James's Park Underground Station"},"geometry":{"type":"Point","coordinates":[-0.133608,51.499544]}},{"type":"Feature","properties":{"stopId":"940GZZLUSKS","name":"South Kensington Underground Station"},"geometry":{"type":"Point","coordinates":[-0.174138,51.494094]}},{"type":"Feature","properties":{"stopId":"940GZZLUSSQ","name":"Sloane Square Underground Station"},"geometry":{"type":"Point","coordinates":[-0.156377,51.49227]}},{"type":"Feature","properties":{"stopId":"940GZZLUTMP","name":"Temple Underground Station"},"geometry":{"type":"Point","coordinates":[-0.11426,51.511006]}},{"type":"Feature","properties":{"stopId":"940GZZLUTWH","name":"Tower Hill Underground Station"},"geometry":{"type":"Point","coordinates":[-0.076546,51.509971]}},{"type":"Feature","properties":{"stopId":"940GZZLUWLA","name":"Wood Lane Underground Station"},"geometry":{"type":"Point","coordinates":[-0.22453,51.509669]}},{"type":"Feature","properties":{"stopId":"940GZZLUWSP","name":"Westbourne Park Underground Station"},"geometry":{"type":"Point","coordinates":[-0.201065,51.52111]}},{"type":"Feature","properties":{"stopId":"HUBBFR","name":"Blackfriars"},"geometry":{"type":"Point","coordinates":[-0.104166,51.509613]}},{"type":"Feature","properties":{"stopId":"HUBCST","name":"Cannon Street"},"geometry":{"type":"Point","coordinates":[-0.090357,51.511451]}},{"type":"Feature","properties":{"stopId":"HUBHMS","name":"Hammersmith"},"geometry":{"type":"Point","coordinates":[-0.223619,51.492304]}},{"type":"Feature","properties":{"stopId":"HUBKGX","name":"King's Cross & St Pancras International"},"geometry":{"type":"Point","coordinates":[-0.123538,51.531683]}},{"type":"Feature","properties":{"stopId":"HUBVIC","name":"Victoria"},"geometry":{"type":"Point","coordinates":[-0.143826,51.495812]}},{"type":"Feature","properties":{"stopId":"HUBWSM","name":"Westminster"},"geometry":{"type":"Point","coordinates":[-0.125984,51.501603]}},{"type":"Feature","properties":{"stopId":"HUBZFD","name":"Farringdon"},"geometry":{"type":"Point","coordinates":[-0.105054,51.520214]}},{"type":"Feature","properties":{"stopId":"HUBZMG","name":"Moorgate"},"geometry":{"type":"Point","coordinates":[-0.088627,51.518338]}},{"type":"Feature","properties":{"stopId":"940GZZLUACT","name":"Acton Town Underground Station"},"geometry":{"type":"Point","coordinates":[-0.280462,51.503057]}},{"type":"Feature","properties":{"stopId":"940GZZLUADE","name":"Aldgate East Underground Station"},"geometry":{"type":"Point","coordinates":[-0.072384,51.515037]}},{"type":"Feature","properties":{"stopId":"940GZZLUBBB","name":"Bromley-by-Bow Underground Station"},"geometry":{"type":"Point","coordinates":[-0.011538,51.524839]}},{"type":"Feature","properties":{"stopId":"940GZZLUBEC","name":"Becontree Underground Station"},"geometry":{"type":"Point","coordinates":[0.127016,51.540331]}},{"type":"Feature","properties":{"stopId":"940GZZLUBSC","name":"Barons Court Underground Station"},"geometry":{"type":"Point","coordinates":[-0.213427,51.490311]}},{"type":"Feature","properties":{"stopId":"940GZZLUBWR","name":"Bow Road Underground Station"},"geometry":{"type":"Point","coordinates":[-0.025128,51.52694]}},{"type":"Feature","properties":{"stopId":"940GZZLUCWP","name":"Chiswick Park Underground Station"},"geometry":{"type":"Point","coordinates":[-0.267972,51.494627]}},{"type":"Feature","properties":{"stopId":"940GZZLUDGE","name":"Dagenham East Underground Station"},"geometry":{"type":"Point","coordinates":[0.166017,51.544096]}},{"type":"Feature","properties":{"stopId":"940GZZLUDGY","name":"Dagenham Heathway Underground Station"},"geometry":{"type":"Point","coordinates":[0.147527,51.541639]}},{"type":"Feature","properties":{"stopId":"940GZZLUECM","name":"Ealing Common Underground Station"},"geometry":{"type":"Point","coordinates":[-0.288265,51.51014]}},{"type":"Feature","properties":{"stopId":"940GZZLUECT","name":"Earl's Court Underground Station"},"geometry":{"type":"Point","coordinates":[-0.193378,51.492063]}},{"type":"Feature","properties":{"stopId":"940GZZLUEHM","name":"East Ham Underground Station"},"geometry":{"type":"Point","coordinates":[0.051186,51.538948]}},{"type":"Feature","properties":{"stopId":"940GZZLUEPK","name":"Elm Park Underground Station"},"geometry":{"type":"Point","coordinates":[0.19864,51.549775]}},{"type":"Feature","properties":{"stopId":"940GZZLUEPY","name":"East Putney Underground Station"},"geometry":{"type":"Point","coordinates":[-0.211,51.459205]}},{"type":"Feature","properties":{"stopId":"940GZZLUFBY","name":"Fulham Broadway Underground Station"},"geometry":{"type":"Point","coordinates":[-0.195422,51.480081]}},{"type":"Feature","properties":{"stopId":"940GZZLUHCH","name":"Hornchurch Underground Station"},"geometry":{"type":"Point","coordinates":[0.219116,51.554093]}},{"type":"Feature","properties":{"stopId":"940GZZLUPLW","name":"Plaistow Underground Station"},"geometry":{"type":"Point","coordinates":[0.017451,51.531341]}},{"type":"Feature","properties":{"stopId":"940GZZLUPSG","name":"Parsons Green Underground Station"},"geometry":{"type":"Point","coordinates":[-0.20117,51.475277]}},{"type":"Feature","properties":{"stopId":"940GZZLUPYB","name":"Putney Bridge Underground Station"},"geometry":{"type":"Point","coordinates":[-0.208731,51.468262]}},{"type":"Feature","properties":{"stopId":"940GZZLURVP","name":"Ravenscourt Park Underground Station"},"geometry":{"type":"Point","coordinates":[-0.235881,51.494122]}},{"type":"Feature","properties":{"stopId":"940GZZLUSFB","name":"Stamford Brook Underground Station"},"geometry":{"type":"Point","coordinates":[-0.245704,51.494917]}},{"type":"Feature","properties":{"stopId":"940GZZLUSFS","name":"Southfields Underground Station"},"geometry":{"type":"Point","coordinates":[-0.206602,51.445073]}},{"type":"Feature","properties":{"stopId":"940GZZLUSGN","name":"Stepney Green Underground Station"},"geometry":{"type":"Point","coordinates":[-0.046596,51.521858]}},{"type":"Feature","properties":{"stopId":"940GZZLUTNG","name":"Turnham Green Underground Station"},"geometry":{"type":"Point","coordinates":[-0.254555,51.495148]}},{"type":"Feature","properties":{"stopId":"940GZZLUUPB","name":"Upminster Bridge Underground Station"},"geometry":{"type":"Point","coordinates":[0.235809,51.55856]}},{"type":"Feature","properties":{"stopId":"940GZZLUUPK","name":"Upton Park Underground Station"},"geometry":{"type":"Point","coordinates":[0.035263,51.53534]}},{"type":"Feature","properties":{"stopId":"940GZZLUUPY","name":"Upney Underground Station"},"geometry":{"type":"Point","coordinates":[0.10153,51.538372]}},{"type":"Feature","properties":{"stopId":"940GZZLUWIP","name":"Wimbledon Park Underground Station"},"geometry":{"type":"Point","coordinates":[-0.199719,51.434573]}},{"type":"Feature","properties":{"stopId":"940GZZLUWKN","name":"West Kensington Underground Station"},"geometry":{"type":"Point","coordinates":[-0.206636,51.490459]}},{"type":"Feature","properties":{"stopId":"HUBBKG","name":"Barking"},"geometry":{"type":"Point","coordinates":[0.080988,51.539413]}},{"type":"Feature","properties":{"stopId":"HUBGUN","name":"Gunnersbury"},"geometry":{"type":"Point","coordinates":[-0.275276,51.491745]}},{"type":"Feature","properties":{"stopId":"HUBKPA","name":"Kensington (Olympia)"},"geometry":{"type":"Point","coordinates":[-0.210502,51.496156]}},{"type":"Feature","properties":{"stopId":"HUBKWG","name":"Kew Gardens"},"geometry":{"type":"Point","coordinates":[-0.285148,51.477069]}},{"type":"Feature","properties":{"stopId":"HUBRMD","name":"Richmond"},"geometry":{"type":"Point","coordinates":[-0.301448,51.463152]}},{"type":"Feature","properties":{"stopId":"HUBUPM","name":"Upminster"},"geometry":{"type":"Point","coordinates":[0.250855,51.558659]}},{"type":"Feature","properties":{"stopId":"HUBWBP","name":"West Brompton"},"geometry":{"type":"Point","coordinates":[-0.195593,51.487168]}},{"type":"Feature","properties":{"stopId":"HUBWEH","name":"West Ham"},"geometry":{"type":"Point","coordinates":[0.004997,51.528178]}},{"type":"Feature","properties":{"stopId":"HUBWIM","name":"Wimbledon"},"geometry":{"type":"Point","coordinates":[-0.206444,51.421505]}},{"type":"Feature","properties":{"stopId":"HUBZWL","name":"Whitechapel"},"geometry":{"type":"Point","coordinates":[-0.059858,51.519498]}},{"type":"Feature","properties":{"stopId":"940GZZLUBMY","name":"Bermondsey Underground Station"},"geometry":{"type":"Point","coordinates":[-0.063993,51.49775]}},{"type":"Feature","properties":{"stopId":"940GZZLUCPK","name":"Canons Park Underground Station"},"geometry":{"type":"Point","coordinates":[-0.294693,51.607701]}},{"type":"Feature","properties":{"stopId":"940GZZLUDOH","name":"Dollis Hill Underground Station"},"geometry":{"type":"Point","coordinates":[-0.239068,51.551955]}},{"type":"Feature","properties":{"stopId":"940GZZLUFYR","name":"Finchley Road Underground Station"},"geometry":{"type":"Point","coordinates":[-0.179845,51.546825]}},{"type":"Feature","properties":{"stopId":"940GZZLUGPK","name":"Green Park Underground Station"},"geometry":{"type":"Point","coordinates":[-0.142787,51.506947]}},{"type":"Feature","properties":{"stopId":"940GZZLUKBN","name":"Kilburn Underground Station"},"geometry":{"type":"Point","coordinates":[-0.204248,51.547183]}},{"type":"Feature","properties":{"stopId":"940GZZLUKBY","name":"Kingsbury Underground Station"},"geometry":{"type":"Point","coordinates":[-0.27879,51.584845]}},{"type":"Feature","properties":{"stopId":"940GZZLUNDN","name":"Neasden Underground Station"},"geometry":{"type":"Point","coordinates":[-0.249837,51.553986]}},{"type":"Feature","properties":{"stopId":"940GZZLUQBY","name":"Queensbury Underground Station"},"geometry":{"type":"Point","coordinates":[-0.286219,51.594188]}},{"type":"Feature","properties":{"stopId":"940GZZLUSJW","name":"St. John's Wood Underground Station"},"geometry":{"type":"Point","coordinates":[-0.173948,51.534521]}},{"type":"Feature","properties":{"stopId":"940GZZLUSTM","name":"Stanmore Underground Station"},"geometry":{"type":"Point","coordinates":[-0.303266,51.619839]}},{"type":"Feature","properties":{"stopId":"940GZZLUSWC","name":"Swiss Cottage Underground Station"},"geometry":{"type":"Point","coordinates":[-0.174894,51.543681]}},{"type":"Feature","properties":{"stopId":"940GZZLUSWK","name":"Southwark Underground Station"},"geometry":{"type":"Point","coordinates":[-0.105331,51.50427]}},{"type":"Feature","properties":{"stopId":"940GZZLUWIG","name":"Willesden Green Underground Station"},"geometry":{"type":"Point","coordinates":[-0.221537,51.549146]}},{"type":"Feature","properties":{"stopId":"940GZZLUWYP","name":"Wembley Park Underground Station"},"geometry":{"type":"Point","coordinates":[-0.279262,51.563198]}},{"type":"Feature","properties":{"stopId":"HUBCAN","name":"Canning Town"},"geometry":{"type":"Point","coordinates":[0.008025,51.514029]}},{"type":"Feature","properties":{"stopId":"HUBCAW","name":"Canary Wharf"},"geometry":{"type":"Point","coordinates":[-0.019121,51.503734]}},{"type":"Feature","properties":{"stopId":"HUBLBG","name":"London Bridge"},"geometry":{"type":"Point","coordinates":[-0.086807,51.505881]}},{"type":"Feature","properties":{"stopId":"HUBNGW","name":"North Greenwich"},"geometry":{"type":"Point","coordinates":[0.004295,51.500474]}},{"type":"Feature","properties":{"stopId":"HUBWHD","name":"West Hampstead"},"geometry":{"type":"Point","coordinates":[-0.191357,51.547533]}},{"type":"Feature","properties":{"stopId":"HUBZCW","name":"Canada Water"},"geometry":{"type":"Point","coordinates":[-0.049667,51.498053]}},{"type":"Feature","properties":{"stopId":"940GZZLUCSM","name":"Chesham Underground Station"},"geometry":{"type":"Point","coordinates":[-0.611247,51.705208]}},{"type":"Feature","properties":{"stopId":"940GZZLUCXY","name":"Croxley Underground Station"},"geometry":{"type":"Point","coordinates":[-0.441718,51.647044]}},{"type":"Feature","properties":{"stopId":"940GZZLUEAE","name":"Eastcote Underground Station"},"geometry":{"type":"Point","coordinates":[-0.397373,51.576506]}},{"type":"Feature","properties":{"stopId":"940GZZLUHGD","name":"Hillingdon Underground Station"},"geometry":{"type":"Point","coordinates":[-0.449828,51.553715]}},{"type":"Feature","properties":{"stopId":"940GZZLUICK","name":"Ickenham Underground Station"},"geometry":{"type":"Point","coordinates":[-0.442225,51.56177]}},{"type":"Feature","properties":{"stopId":"940GZZLUMPK","name":"Moor Park Underground Station"},"geometry":{"type":"Point","coordinates":[-0.432454,51.629845]}},{"type":"Feature","properties":{"stopId":"940GZZLUNHA","name":"North Harrow Underground Station"},"geometry":{"type":"Point","coordinates":[-0.362408,51.584872]}},{"type":"Feature","properties":{"stopId":"940GZZLUNKP","name":"Northwick Park Underground Station"},"geometry":{"type":"Point","coordinates":[-0.318056,51.578481]}},{"type":"Feature","properties":{"stopId":"940GZZLUNOW","name":"Northwood Underground Station"},"geometry":{"type":"Point","coordinates":[-0.423829,51.611053]}},{"type":"Feature","properties":{"stopId":"940GZZLUNWH","name":"Northwood Hills Underground Station"},"geometry":{"type":"Point","coordinates":[-0.409464,51.600572]}},{"type":"Feature","properties":{"stopId":"940GZZLUPNR","name":"Pinner Underground Station"},"geometry":{"type":"Point","coordinates":[-0.381161,51.592901]}},{"type":"Feature","properties":{"stopId":"940GZZLUPRD","name":"Preston Road Underground Station"},"geometry":{"type":"Point","coordinates":[-0.295107,51.571972]}},{"type":"Feature","properties":{"stopId":"940GZZLURSM","name":"Ruislip Manor Underground Station"},"geometry":{"type":"Point","coordinates":[-0.412973,51.573202]}},{"type":"Feature","properties":{"stopId":"940GZZLURSP","name":"Ruislip Underground Station"},"geometry":{"type":"Point","coordinates":[-0.421898,51.571354]}},{"type":"Feature","properties":{"stopId":"940GZZLURYL","name":"Rayners Lane Underground Station"},"geometry":{"type":"Point","coordinates":[-0.371127,51.575147]}},{"type":"Feature","properties":{"stopId":"940GZZLUUXB","name":"Uxbridge Underground Station"},"geometry":{"type":"Point","coordinates":[-0.477949,51.546565]}},{"type":"Feature","properties":{"stopId":"940GZZLUWAF","name":"Watford Underground Station"},"geometry":{"type":"Point","coordinates":[-0.417377,51.657446]}},{"type":"Feature","properties":{"stopId":"940GZZLUWHW","name":"West Harrow Underground Station"},"geometry":{"type":"Point","coordinates":[-0.3534,51.57971]}},{"type":"Feature","properties":{"stopId":"HUBAMR","name":"Amersham"},"geometry":{"type":"Point","coordinates":[-0.60759,51.674207]}},{"type":"Feature","properties":{"stopId":"HUBCFO","name":"Chalfont & Latimer"},"geometry":{"type":"Point","coordinates":[-0.560519,51.668109]}},{"type":"Feature","properties":{"stopId":"HUBCLW","name":"Chorleywood"},"geometry":{"type":"Point","coordinates":[-0.518312,51.654249]}},{"type":"Feature","properties":{"stopId":"HUBHOH","name":"Harrow-on-the-Hill"},"geometry":{"type":"Point","coordinates":[-0.337226,51.579197]}},{"type":"Feature","properties":{"stopId":"HUBRIC","name":"Rickmansworth"},"geometry":{"type":"Point","coordinates":[-0.473273,51.640247]}},{"type":"Feature","properties":{"stopId":"940GZZBPSUST","name":"Battersea Power Station Underground Station"},"geometry":{"type":"Point","coordinates":[-0.142142,51.479932]}},{"type":"Feature","properties":{"stopId":"940GZZLUACY","name":"Archway Underground Station"},"geometry":{"type":"Point","coordinates":[-0.134819,51.565478]}},{"type":"Feature","properties":{"stopId":"940GZZLUAGL","name":"Angel Underground Station"},"geometry":{"type":"Point","coordinates":[-0.105919,51.531788]}},{"type":"Feature","properties":{"stopId":"940GZZLUBOR","name":"Borough Underground Station"},"geometry":{"type":"Point","coordinates":[-0.09337,51.501199]}},{"type":"Feature","properties":{"stopId":"940GZZLUBTK","name":"Burnt Oak Underground Station"},"geometry":{"type":"Point","coordinates":[-0.264048,51.602774]}},{"type":"Feature","properties":{"stopId":"940GZZLUBTX","name":"Brent Cross Underground Station"},"geometry":{"type":"Point","coordinates":[-0.213622,51.57665]}},{"type":"Feature","properties":{"stopId":"940GZZLUBZP","name":"Belsize Park Underground Station"},"geometry":{"type":"Point","coordinates":[-0.164648,51.550311]}},{"type":"Feature","properties":{"stopId":"940GZZLUCFM","name":"Chalk Farm Underground Station"},"geometry":{"type":"Point","coordinates":[-0.153388,51.544118]}},{"type":"Feature","properties":{"stopId":"940GZZLUCND","name":"Colindale Underground Station"},"geometry":{"type":"Point","coordinates":[-0.249919,51.595424]}},{"type":"Feature","properties":{"stopId":"940GZZLUCPC","name":"Clapham Common Underground Station"},"geometry":{"type":"Point","coordinates":[-0.138317,51.461742]}},{"type":"Feature","properties":{"stopId":"940GZZLUCPN","name":"Clapham North Underground Station"},"geometry":{"type":"Point","coordinates":[-0.130016,51.465135]}},{"type":"Feature","properties":{"stopId":"940GZZLUCPS","name":"Clapham South Underground Station"},"geometry":{"type":"Point","coordinates":[-0.147582,51.452654]}},{"type":"Feature","properties":{"stopId":"940GZZLUCSD","name":"Colliers Wood Underground Station"},"geometry":{"type":"Point","coordinates":[-0.178086,51.41816]}},{"type":"Feature","properties":{"stopId":"940GZZLUCTN","name":"Camden Town Underground Station"},"geometry":{"type":"Point","coordinates":[-0.14274,51.539292]}},{"type":"Feature","properties":{"stopId":"940GZZLUEFY","name":"East Finchley Underground Station"},"geometry":{"type":"Point","coordinates":[-0.165012,51.587131]}},{"type":"Feature","properties":{"stopId":"940GZZLUEGW","name":"Edgware Underground Station"},"geometry":{"type":"Point","coordinates":[-0.274928,51.613653]}},{"type":"Feature","properties":{"stopId":"940GZZLUFYC","name":"Finchley Central Underground Station"},"geometry":{"type":"Point","coordinates":[-0.192527,51.600921]}},{"type":"Feature","properties":{"stopId":"940GZZLUGDG","name":"Goodge Street Underground Station"},"geometry":{"type":"Point","coordinates":[-0.134361,51.520599]}},{"type":"Feature","properties":{"stopId":"940GZZLUGGN","name":"Golders Green Underground Station"},"geometry":{"type":"Point","coordinates":[-0.194039,51.572259]}},{"type":"Feature","properties":{"stopId":"940GZZLUHBT","name":"High Barnet Underground Station"},"geometry":{"type":"Point","coordinates":[-0.194298,51.650541]}},{"type":"Feature","properties":{"stopId":"940GZZLUHCL","name":"Hendon Central Underground Station"},"geometry":{"type":"Point","coordinates":[-0.226424,51.583301]}},{"type":"Feature","properties":{"stopId":"940GZZLUHGT","name":"Highgate Underground Station"},"geometry":{"type":"Point","coordinates":[-0.145857,51.577532]}},{"type":"Feature","properties":{"stopId":"940GZZLUHTD","name":"Hampstead Underground Station"},"geometry":{"type":"Point","coordinates":[-0.177464,51.556239]}},{"type":"Feature","properties":{"stopId":"940GZZLUKNG","name":"Kennington Underground Station"},"geometry":{"type":"Point","coordinates":[-0.105963,51.488337]}},{"type":"Feature","properties":{"stopId":"940GZZLULSQ","name":"Leicester Square Underground Station"},"geometry":{"type":"Point","coordinates":[-0.128426,51.511386]}},{"type":"Feature","properties":{"stopId":"940GZZLUMDN","name":"Morden Underground Station"},"geometry":{"type":"Point","coordinates":[-0.194839,51.402142]}},{"type":"Feature","properties":{"stopId":"940GZZLUMHL","name":"Mill Hill East Underground Station"},"geometry":{"type":"Point","coordinates":[-0.209986,51.608229]}},{"type":"Feature","properties":{"stopId":"940GZZLUMTC","name":"Mornington Crescent Underground Station"},"geometry":{"type":"Point","coordinates":[-0.138789,51.534679]}},{"type":"Feature","properties":{"stopId":"940GZZLUOVL","name":"Oval Underground Station"},"geometry":{"type":"Point","coordinates":[-0.112439,51.48185]}},{"type":"Feature","properties":{"stopId":"940GZZLUSKW","name":"Stockwell Underground Station"},"geometry":{"type":"Point","coordinates":[-0.122644,51.472184]}},{"type":"Feature","properties":{"stopId":"940GZZLUSWN","name":"South Wimbledon Underground Station"},"geometry":{"type":"Point","coordinates":[-0.192005,51.415309]}},{"type":"Feature","properties":{"stopId":"940GZZLUTAW","name":"Totteridge & Whetstone Underground Station"},"geometry":{"type":"Point","coordinates":[-0.17921,51.630597]}},{"type":"Feature","properties":{"stopId":"940GZZLUTBC","name":"Tooting Bec Underground Station"},"geometry":{"type":"Point","coordinates":[-0.159736,51.435678]}},{"type":"Feature","properties":{"stopId":"940GZZLUTBY","name":"Tooting Broadway Underground Station"},"geometry":{"type":"Point","coordinates":[-0.168374,51.42763]}},{"type":"Feature","properties":{"stopId":"940GZZLUTFP","name":"Tufnell Park Underground Station"},"geometry":{"type":"Point","coordinates":[-0.138433,51.556822]}},{"type":"Feature","properties":{"stopId":"940GZZLUWFN","name":"West Finchley Underground Station"},"geometry":{"type":"Point","coordinates":[-0.188362,51.609426]}},{"type":"Feature","properties":{"stopId":"940GZZLUWOP","name":"Woodside Park Underground Station"},"geometry":{"type":"Point","coordinates":[-0.18542,51.618014]}},{"type":"Feature","properties":{"stopId":"940GZZLUWRR","name":"Warren Street Underground Station"},"geometry":{"type":"Point","coordinates":[-0.138321,51.524951]}},{"type":"Feature","properties":{"stopId":"940GZZNEUGST","name":"Nine Elms Underground Station"},"geometry":{"type":"Point","coordinates":[-0.128476,51.479912]}},{"type":"Feature","properties":{"stopId":"HUBBAL","name":"Balham"},"geometry":{"type":"Point","coordinates":[-0.152707,51.443259]}},{"type":"Feature","properties":{"stopId":"HUBEUS","name":"Euston"},"geometry":{"type":"Point","coordinates":[-0.132754,51.527365]}},{"type":"Feature","properties":{"stopId":"HUBKTN","name":"Kentish Town"},"geometry":{"type":"Point","coordinates":[-0.140545,51.550409]}},{"type":"Feature","properties":{"stopId":"HUBOLD","name":"Old Street"},"geometry":{"type":"Point","coordinates":[-0.088193,51.526065]}},{"type":"Feature","properties":{"stopId":"940GZZLUALP","name":"Alperton Underground Station"},"geometry":{"type":"Point","coordinates":[-0.29961,51.540627]}},{"type":"Feature","properties":{"stopId":"940GZZLUASG","name":"Arnos Grove Underground Station"},"geometry":{"type":"Point","coordinates":[-0.133062,51.616446]}},{"type":"Feature","properties":{"stopId":"940GZZLUASL","name":"Arsenal Underground Station"},"geometry":{"type":"Point","coordinates":[-0.107457,51.558655]}},{"type":"Feature","properties":{"stopId":"940GZZLUBDS","name":"Bounds Green Underground Station"},"geometry":{"type":"Point","coordinates":[-0.124235,51.607034]}},{"type":"Feature","properties":{"stopId":"940GZZLUBOS","name":"Boston Manor Underground Station"},"geometry":{"type":"Point","coordinates":[-0.324939,51.495635]}},{"type":"Feature","properties":{"stopId":"940GZZLUCAR","name":"Caledonian Road Underground Station"},"geometry":{"type":"Point","coordinates":[-0.118493,51.548519]}},{"type":"Feature","properties":{"stopId":"940GZZLUCGN","name":"Covent Garden Underground Station"},"geometry":{"type":"Point","coordinates":[-0.124436,51.513093]}},{"type":"Feature","properties":{"stopId":"940GZZLUCKS","name":"Cockfosters Underground Station"},"geometry":{"type":"Point","coordinates":[-0.149171,51.65152]}},{"type":"Feature","properties":{"stopId":"940GZZLUHNX","name":"Hatton Cross Underground Station"},"geometry":{"type":"Point","coordinates":[-0.423191,51.466747]}},{"type":"Feature","properties":{"stopId":"940GZZLUHPC","name":"Hyde Park Corner Underground Station"},"geometry":{"type":"Point","coordinates":[-0.152441,51.503035]}},{"type":"Feature","properties":{"stopId":"940GZZLUHWC","name":"Hounslow Central Underground Station"},"geometry":{"type":"Point","coordinates":[-0.366578,51.471295]}},{"type":"Feature","properties":{"stopId":"940GZZLUHWE","name":"Hounslow East Underground Station"},"geometry":{"type":"Point","coordinates":[-0.356474,51.473213]}},{"type":"Feature","properties":{"stopId":"940GZZLUHWT","name":"Hounslow West Underground Station"},"geometry":{"type":"Point","coordinates":[-0.386544,51.473469]}},{"type":"Feature","properties":{"stopId":"940GZZLUHWY","name":"Holloway Road Underground Station"},"geometry":{"type":"Point","coordinates":[-0.113244,51.552697]}},{"type":"Feature","properties":{"stopId":"940GZZLUKNB","name":"Knightsbridge Underground Station"},"geometry":{"type":"Point","coordinates":[-0.160508,51.501669]}},{"type":"Feature","properties":{"stopId":"940GZZLUMRH","name":"Manor House Underground Station"},"geometry":{"type":"Point","coordinates":[-0.096118,51.570738]}},{"type":"Feature","properties":{"stopId":"940GZZLUNEN","name":"North Ealing Underground Station"},"geometry":{"type":"Point","coordinates":[-0.288868,51.517505]}},{"type":"Feature","properties":{"stopId":"940GZZLUNFD","name":"Northfields Underground Station"},"geometry":{"type":"Point","coordinates":[-0.314719,51.499319]}},{"type":"Feature","properties":{"stopId":"940GZZLUOAK","name":"Oakwood Underground Station"},"geometry":{"type":"Point","coordinates":[-0.132182,51.647726]}},{"type":"Feature","properties":{"stopId":"940GZZLUOSY","name":"Osterley Underground Station"},"geometry":{"type":"Point","coordinates":[-0.352224,51.481274]}},{"type":"Feature","properties":{"stopId":"940GZZLUPKR","name":"Park Royal Underground Station"},"geometry":{"type":"Point","coordinates":[-0.284341,51.527123]}},{"type":"Feature","properties":{"stopId":"940GZZLURSQ","name":"Russell Square Underground Station"},"geometry":{"type":"Point","coordinates":[-0.124285,51.523073]}},{"type":"Feature","properties":{"stopId":"940GZZLUSEA","name":"South Ealing Underground Station"},"geometry":{"type":"Point","coordinates":[-0.307424,51.501003]}},{"type":"Feature","properties":{"stopId":"940GZZLUSGT","name":"Southgate Underground Station"},"geometry":{"type":"Point","coordinates":[-0.127816,51.632315]}},{"type":"Feature","properties":{"stopId":"940GZZLUSHH","name":"South Harrow Underground Station"},"geometry":{"type":"Point","coordinates":[-0.352492,51.564888]}},{"type":"Feature","properties":{"stopId":"940GZZLUSUH","name":"Sudbury Hill Underground Station"},"geometry":{"type":"Point","coordinates":[-0.336435,51.556946]}},{"type":"Feature","properties":{"stopId":"940GZZLUSUT","name":"Sudbury Town Underground Station"},"geometry":{"type":"Point","coordinates":[-0.315745,51.550815]}},{"type":"Feature","properties":{"stopId":"940GZZLUTPN","name":"Turnpike Lane Underground Station"},"geometry":{"type":"Point","coordinates":[-0.102953,51.590272]}},{"type":"Feature","properties":{"stopId":"940GZZLUWOG","name":"Wood Green Underground Station"},"geometry":{"type":"Point","coordinates":[-0.109886,51.597479]}},{"type":"Feature","properties":{"stopId":"HUBFPK","name":"Finsbury Park"},"geometry":{"type":"Point","coordinates":[-0.105876,51.564778]}},{"type":"Feature","properties":{"stopId":"HUBH13","name":"Heathrow Terminals 2 & 3"},"geometry":{"type":"Point","coordinates":[-0.454037,51.471618]}},{"type":"Feature","properties":{"stopId":"HUBHX4","name":"Heathrow Airport Terminal 4"},"geometry":{"type":"Point","coordinates":[-0.446419,51.458837]}},{"type":"Feature","properties":{"stopId":"HUBHX5","name":"Heathrow Airport Terminal 5"},"geometry":{"type":"Point","coordinates":[-0.489556,51.471569]}},{"type":"Feature","properties":{"stopId":"940GZZLUPCO","name":"Pimlico Underground Station"},"geometry":{"type":"Point","coordinates":[-0.133761,51.489097]}},{"type":"Feature","properties":{"stopId":"HUBBHO","name":"Blackhorse Road"},"geometry":{"type":"Point","coordinates":[-0.041185,51.586768]}},{"type":"Feature","properties":{"stopId":"HUBBRX","name":"Brixton"},"geometry":{"type":"Point","coordinates":[-0.114531,51.462961]}},{"type":"Feature","properties":{"stopId":"HUBHHY","name":"Highbury & Islington"},"geometry":{"type":"Point","coordinates":[-0.103538,51.546269]}},{"type":"Feature","properties":{"stopId":"HUBSVS","name":"Seven Sisters"},"geometry":{"type":"Point","coordinates":[-0.073306,51.582931]}},{"type":"Feature","properties":{"stopId":"HUBTOM","name":"Tottenham Hale"},"geometry":{"type":"Point","coordinates":[-0.06024,51.588315]}},{"type":"Feature","properties":{"stopId":"HUBVXH","name":"Vauxhall"},"geometry":{"type":"Point","coordinates":[-0.123303,51.485739]}},{"type":"Feature","properties":{"stopId":"HUBWHC","name":"Walthamstow Central"},"geometry":{"type":"Point","coordinates":[-0.019842,51.582948]}}]}